OBJECT_NAME,OBJECT_ID,EPOCH,MEAN_MOTION,ECCENTRICITY,INCLINATION,RA_OF_ASC_NODE,ARG_OF_PERICENTER,MEAN_ANOMALY,EPHEMERIS_TYPE,CLASSIFICATION_TYPE,NORAD_CAT_ID,ELEMENT_SET_NO,REV_AT_EPOCH,BSTAR,MEAN_MOTION_DOT,MEAN_MOTION_DDOT
ORBCOMM FM06,1997-084G,2026-06-11T12:06:58.106880,14.47549203,.0001678,45.0141,80.0668,313.6183,220.3416,0,U,25118,999,49356,.35048E-3,.1156E-4,0
ORBCOMM FM04,1998-007C,2026-06-11T16:20:54.335616,14.35731429,.0041163,107.9626,158.0871,334.2447,25.6644,0,U,25159,999,47580,.3098E-3,.772E-5,0
ORBCOMM FM19,1998-046C,2026-06-11T14:10:42.216960,14.39486919,.0004457,44.9940,270.1636,259.1454,120.1550,0,U,25415,999,45597,.25623E-3,.663E-5,0
ORBCOMM FM20,1998-046D,2026-06-11T14:15:43.568064,14.38059421,.0001955,44.9946,278.0077,231.5694,128.4978,0,U,25416,999,45598,.2227E-3,.538E-5,0
ORBCOMM FM27,1998-053G,2026-06-11T05:13:13.460160,14.39130154,.000045,45.0066,3.7074,158.6503,201.4365,0,U,25481,999,44937,.28526E-3,.748E-5,0
ORBCOMM FM32,1999-065C,2026-06-11T09:09:27.769824,14.37123662,.0004848,45.0137,200.7205,4.7043,355.3850,0,U,25982,999,38625,.18425E-3,.41E-5,0
ORBCOMM FM109,2014-040A,2026-06-11T03:21:25.345152,14.58838155,.00017501,47.0025,120.0774,230.5593,129.5138,0,U,40086,999,63346,.10777085E-3,.338E-5,0
ORBCOMM FM114,2015-081A,2026-06-11T08:42:09.406368,14.58851913,.0002127,47.0059,29.5421,183.9472,176.1397,0,U,41179,999,55690,.11441E-3,.369E-5,0
ORBCOMM FM110,2015-081D,2026-06-11T08:25:33.913344,14.58871310,.0002713,47.0030,29.0373,41.4135,318.6956,0,U,41182,999,55677,.15771E-3,.574E-5,0
ORBCOMM FM118,2015-081E,2026-06-10T08:35:33.840384,14.58873126,.00030916,47.0037,34.0634,351.4383,8.6449,0,U,41183,999,55673,.47978689E-3,.2098E-4,0
ORBCOMM FM112,2015-081F,2026-06-11T15:56:04.714080,14.58896043,.0003403,47.0000,296.3651,194.0048,166.0744,0,U,41184,999,55814,.14792E-3,.528E-5,0
ORBCOMM FM113,2015-081G,2026-06-11T15:22:10.242912,14.58852950,.0001968,47.0017,296.8498,202.9654,157.1144,0,U,41185,999,55812,.11367E-3,.366E-5,0
ORBCOMM FM108,2015-081J,2026-06-11T09:32:13.324416,14.58864517,.000265,47.0051,209.5722,198.8914,161.1874,0,U,41187,999,55923,.10383E-3,.319E-5,0
ORBCOMM FM117,2015-081K,2026-06-11T10:21:09.516960,14.58860915,.0003193,46.9998,208.0466,200.5822,159.4936,0,U,41188,999,55928,.1049E-3,.324E-5,0
ORBCOMM FM116,2015-081L,2026-06-11T01:39:59.698944,14.58873761,.00008948,47.0034,299.5479,20.3124,339.7798,0,U,41189,999,55804,.14701744E-3,.524E-5,0
